start=new Date('2022-03-05T00:00:00.000Z').valueOf();
sats=[{"BSTAR":"0.00047880000000","APOAPSIS":"548.450","MEAN_ELEMENT_THEORY":"SGP4","REF_FRAME":"TEME","FILE":"3344357","REV_AT_EPOCH":"11959","SEMIMAJOR_AXIS":"6925.304","COUNTRY_CODE":"US","INCLINATION":"53.0514","MEAN_MOTION_DDOT":"0.0000000000000","ARG_OF_PERICENTER":"63.2294","GP_ID":"197841738","ELEMENT_SET_NO":"999","MEAN_MOTION_DOT":"0.00006860","RCS_SIZE":"LARGE","TIME_SYSTEM":"UTC","TLE_LINE1":"1 44918U 20001E   22063.46409317  .00006860  00000-0  47880-3 0  9996","OBJECT_TYPE":"PAYLOAD","MEAN_MOTION":"15.06414438","PERIOD":"95.591","OBJECT_NAME":"STARLINK-1099","MEAN_ANOMALY":"296.8884","OBJECT_ID":"2020-001E","CENTER_NAME":"EARTH","ECCENTRICITY":"0.00018490","LAUNCH_DATE":"2020-01-07","EPOCH":"2022-03-04T11:08:17.649888","PERIAPSIS":"545.889","SITE":"AFETR","CLASSIFICATION_TYPE":"U","RA_OF_ASC_NODE":"88.7642","TLE_LINE2":"2 44918  53.0514  88.7642 0001849  63.2294 296.8884 15.06414438119595","NORAD_CAT_ID":"44918","DECAY_DATE":null,"EPHEMERIS_TYPE":"0"},{"ECCENTRICITY":"0.00017300","MEAN_ANOMALY":"302.9723","CENTER_NAME":"EARTH","OBJECT_ID":"2020-001G","OBJECT_NAME":"STARLINK-1102","PERIOD":"95.592","PERIAPSIS":"546.027","CLASSIFICATION_TYPE":"U","SITE":"AFETR","LAUNCH_DATE":"2020-01-07","EPOCH":"2022-03-04T11:29:31.969536","NORAD_CAT_ID":"44920","RA_OF_ASC_NODE":"88.6949","TLE_LINE2":"2 44920  53.0541  88.6949 0001730  57.1433 302.9723 15.06396400118850","EPHEMERIS_TYPE":"0","DECAY_DATE":null,"REV_AT_EPOCH":"11885","APOAPSIS":"548.423","REF_FRAME":"TEME","MEAN_ELEMENT_THEORY":"SGP4","BSTAR":"-0.00009085200000","FILE":"3344357","ARG_OF_PERICENTER":"57.1433","SEMIMAJOR_AXIS":"6925.360","MEAN_MOTION_DDOT":"0.0000000000000","INCLINATION":"53.0541","COUNTRY_CODE":"US","ELEMENT_SET_NO":"999","MEAN_MOTION_DOT":"-0.00001634","GP_ID":"197841000","TIME_SYSTEM":"UTC","TLE_LINE1":"1 44920U 20001G   22063.47884224 -.00001634  00000-0 -90852-4 0  9998","OBJECT_TYPE":"PAYLOAD","MEAN_MOTION":"15.06396400","RCS_SIZE":"LARGE"},{"ARG_OF_PERICENTER":"64.6227","COUNTRY_CODE":"US","INCLINATION":"53.0533","MEAN_MOTION_DDOT":"0.0000000000000","SEMIMAJOR_AXIS":"6925.360","REV_AT_EPOCH":"11883","FILE":"3344357","BSTAR":"0.00007592600000","APOAPSIS":"548.315","REF_FRAME":"TEME","MEAN_ELEMENT_THEORY":"SGP4","OBJECT_TYPE":"PAYLOAD","MEAN_MOTION":"15.06396220","TLE_LINE1":"1 44921U 20001H   22063.50095603  .00000849  00000-0  75926-4 0  9998","TIME_SYSTEM":"UTC","RCS_SIZE":"LARGE","MEAN_MOTION_DOT":"0.00000849","ELEMENT_SET_NO":"999","GP_ID":"197841250","SITE":"AFETR","CLASSIFICATION_TYPE":"U","PERIAPSIS":"546.135","EPOCH":"2022-03-04T12:01:22.600992","LAUNCH_DATE":"2020-01-07","OBJECT_NAME":"STARLINK-1103","MEAN_ANOMALY":"295.4925","CENTER_NAME":"EARTH","OBJECT_ID":"2020-001H","ECCENTRICITY":"0.00015740","PERIOD":"95.592","EPHEMERIS_TYPE":"0","DECAY_DATE":null,"NORAD_CAT_ID":"44921","TLE_LINE2":"2 44921  53.0533  88.5871 0001574  64.6227 295.4925 15.06396220118833","RA_OF_ASC_NODE":"88.5871"},{"PERIOD":"95.592","MEAN_ANOMALY":"302.6117","OBJECT_NAME":"STARLINK-1104","OBJECT_ID":"2020-001J","CENTER_NAME":"EARTH","ECCENTRICITY":"0.00016200","LAUNCH_DATE":"2020-01-07","EPOCH":"2022-03-04T09:38:03.630624","PERIAPSIS":"546.092","SITE":"AFETR","CLASSIFICATION_TYPE":"U","RA_OF_ASC_NODE":"89.0305","TLE_LINE2":"2 44922  53.0536  89.0305 0001620  57.5028 302.6117 15.06399815118845","NORAD_CAT_ID":"44922","DECAY_DATE":null,"EPHEMERIS_TYPE":"0","BSTAR":"0.00014862000000","APOAPSIS":"548.336","MEAN_ELEMENT_THEORY":"SGP4","REF_FRAME":"TEME","FILE":"3344357","REV_AT_EPOCH":"11884","SEMIMAJOR_AXIS":"6925.349","COUNTRY_CODE":"US","INCLINATION":"53.0536","MEAN_MOTION_DDOT":"0.0000000000000","ARG_OF_PERICENTER":"57.5028","GP_ID":"197841502","ELEMENT_SET_NO":"999","MEAN_MOTION_DOT":"0.00001933","RCS_SIZE":"LARGE","TIME_SYSTEM":"UTC","TLE_LINE1":"1 44922U 20001J   22063.40143091  .00001933  00000-0  14862-3 0  9999","MEAN_MOTION":"15.06399815","OBJECT_TYPE":"PAYLOAD"},{"OBJECT_ID":"2020-001K","MEAN_ANOMALY":"301.1359","CENTER_NAME":"EARTH","OBJECT_NAME":"STARLINK-1106","ECCENTRICITY":"0.00016070","PERIOD":"95.592","SITE":"AFETR","CLASSIFICATION_TYPE":"U","PERIAPSIS":"546.094","EPOCH":"2022-03-04T18:12:54.645120","LAUNCH_DATE":"2020-01-07","NORAD_CAT_ID":"44923","TLE_LINE2":"2 44923  53.0555  87.4336 0001607  58.9787 301.1359 15.06402118118893","RA_OF_ASC_NODE":"87.4336","EPHEMERIS_TYPE":"0","DECAY_DATE":null,"REV_AT_EPOCH":"11889","FILE":"3344863","BSTAR":"0.00006232200000","APOAPSIS":"548.320","REF_FRAME":"TEME","MEAN_ELEMENT_THEORY":"SGP4","ARG_OF_PERICENTER":"58.9787","COUNTRY_CODE":"US","INCLINATION":"53.0555","MEAN_MOTION_DDOT":"0.0000000000000","SEMIMAJOR_AXIS":"6925.342","MEAN_MOTION_DOT":"0.00000647","ELEMENT_SET_NO":"999","GP_ID":"197902791","OBJECT_TYPE":"PAYLOAD","MEAN_MOTION":"15.06402118","TLE_LINE1":"1 44923U 20001K   22063.75896580  .00000647  00000-0  62322-4 0  9992","TIME_SYSTEM":"UTC","RCS_SIZE":"LARGE"},{"ARG_OF_PERICENTER":"4.8113","MEAN_MOTION_DDOT":"0.0000000000000","INCLINATION":"53.0541","COUNTRY_CODE":"US","SEMIMAJOR_AXIS":"6925.314","REV_AT_EPOCH":"11885","FILE":"3344357","REF_FRAME":"TEME","APOAPSIS":"548.708","MEAN_ELEMENT_THEORY":"SGP4","BSTAR":"0.00034814000000","OBJECT_TYPE":"PAYLOAD","MEAN_MOTION":"15.06411191","TLE_LINE1":"1 44924U 20001L   22063.48251859  .00004909  00000-0  34814-3 0  9996","TIME_SYSTEM":"UTC","RCS_SIZE":"LARGE","MEAN_MOTION_DOT":"0.00004909","ELEMENT_SET_NO":"999","GP_ID":"197840501","CLASSIFICATION_TYPE":"U","SITE":"AFETR","PERIAPSIS":"545.650","EPOCH":"2022-03-04T11:34:49.606176","LAUNCH_DATE":"2020-01-07","ECCENTRICITY":"0.00022080","MEAN_ANOMALY":"355.2897","OBJECT_NAME":"STARLINK-1111","OBJECT_ID":"2020-001L","CENTER_NAME":"EARTH","PERIOD":"95.591","EPHEMERIS_TYPE":"0","DECAY_DATE":null,"NORAD_CAT_ID":"44924","TLE_LINE2":"2 44924  53.0541  88.6820 0002208   4.8113 355.2897 15.06411191118855","RA_OF_ASC_NODE":"88.6820"},{"FILE":"3344863","APOAPSIS":"548.424","MEAN_ELEMENT_THEORY":"SGP4","REF_FRAME":"TEME","BSTAR":"-0.00006537400000","REV_AT_EPOCH":"11889","MEAN_MOTION_DDOT":"0.0000000000000","INCLINATION":"53.0542","COUNTRY_CODE":"US","SEMIMAJOR_AXIS":"6925.366","ARG_OF_PERICENTER":"49.8623","GP_ID":"197901790","MEAN_MOTION_DOT":"-0.00001255","ELEMENT_SET_NO":"999","RCS_SIZE":"LARGE","MEAN_MOTION":"15.06394205","OBJECT_TYPE":"PAYLOAD","TIME_SYSTEM":"UTC","TLE_LINE1":"1 44925U 20001M   22063.76265700 -.00001255  00000-0 -65374-4 0  9997","PERIOD":"95.593","ECCENTRICITY":"0.00017220","MEAN_ANOMALY":"310.2516","OBJECT_ID":"2020-001M","CENTER_NAME":"EARTH","OBJECT_NAME":"STARLINK-1112","EPOCH":"2022-03-04T18:18:13.564800","LAUNCH_DATE":"2020-01-07","CLASSIFICATION_TYPE":"U","SITE":"AFETR","PERIAPSIS":"546.039","TLE_LINE2":"2 44925  53.0542  87.4135 0001722  49.8623 310.2516 15.06394205118897","RA_OF_ASC_NODE":"87.4135","NORAD_CAT_ID":"44925","DECAY_DATE":null,"EPHEMERIS_TYPE":"0"},{"MEAN_MOTION_DOT":"0.00000753","ELEMENT_SET_NO":"999","GP_ID":"197842002","MEAN_MOTION":"15.05590848","OBJECT_TYPE":"PAYLOAD","TIME_SYSTEM":"UTC","TLE_LINE1":"1 44926U 20001N   22063.38331767  .00000753  00000-0  70814-4 0  9998","RCS_SIZE":"LARGE","REV_AT_EPOCH":"11955","FILE":"3344357","BSTAR":"0.00007081400000","REF_FRAME":"TEME","APOAPSIS":"550.747","MEAN_ELEMENT_THEORY":"SGP4","ARG_OF_PERICENTER":"61.7448","COUNTRY_CODE":"US","INCLINATION":"53.0016","MEAN_MOTION_DDOT":"0.0000000000000","SEMIMAJOR_AXIS":"6927.830","NORAD_CAT_ID":"44926","TLE_LINE2":"2 44926  53.0016  89.1257 0001519  61.7448 298.3693 15.05590848119556","RA_OF_ASC_NODE":"89.1257","EPHEMERIS_TYPE":"0","DECAY_DATE":null,"MEAN_ANOMALY":"298.3693","OBJECT_ID":"2020-001N","CENTER_NAME":"EARTH","OBJECT_NAME":"STARLINK-1113","ECCENTRICITY":"0.00015190","PERIOD":"95.644","SITE":"AFETR","CLASSIFICATION_TYPE":"U","PERIAPSIS":"548.642","EPOCH":"2022-03-04T09:11:58.646688","LAUNCH_DATE":"2020-01-07"},{"FILE":"3344357","BSTAR":"0.00021146000000","APOAPSIS":"548.301","MEAN_ELEMENT_THEORY":"SGP4","REF_FRAME":"TEME","REV_AT_EPOCH":"11886","INCLINATION":"53.0539","COUNTRY_CODE":"US","MEAN_MOTION_DDOT":"0.0000000000000","SEMIMAJOR_AXIS":"6925.344","ARG_OF_PERICENTER":"54.6539","GP_ID":"197841739","MEAN_MOTION_DOT":"0.00002870","ELEMENT_SET_NO":"999","RCS_SIZE":"LARGE","MEAN_MOTION":"15.06401594","OBJECT_TYPE":"PAYLOAD","TIME_SYSTEM":"UTC","TLE_LINE1":"1 44927U 20001P   22063.50832076  .00002870  00000-0  21146-3 0  9997","PERIOD":"95.592","MEAN_ANOMALY":"305.4597","OBJECT_ID":"2020-001P","CENTER_NAME":"EARTH","OBJECT_NAME":"STARLINK-1114","ECCENTRICITY":"0.00015770","EPOCH":"2022-03-04T12:11:58.913664","LAUNCH_DATE":"2020-01-07","SITE":"AFETR","CLASSIFICATION_TYPE":"U","PERIAPSIS":"546.117","TLE_LINE2":"2 44927  53.0539  88.5527 0001577  54.6539 305.4597 15.06401594118862","RA_OF_ASC_NODE":"88.5527","NORAD_CAT_ID":"44927","DECAY_DATE":null,"EPHEMERIS_TYPE":"0"},{"GP_ID":"197881286","MEAN_MOTION_DOT":"0.00000590","ELEMENT_SET_NO":"999","RCS_SIZE":"LARGE","OBJECT_TYPE":"PAYLOAD","MEAN_MOTION":"15.06390759","TIME_SYSTEM":"UTC","TLE_LINE1":"1 44928U 20001Q   22063.50464663  .00000590  00000-0  58512-4 0  9996","FILE":"3344713","APOAPSIS":"548.399","REF_FRAME":"TEME","MEAN_ELEMENT_THEORY":"SGP4","BSTAR":"0.00005851200000","REV_AT_EPOCH":"11886","MEAN_MOTION_DDOT":"0.0000000000000","COUNTRY_CODE":"US","INCLINATION":"53.0530","SEMIMAJOR_AXIS":"6925.377","ARG_OF_PERICENTER":"53.1774","TLE_LINE2":"2 44928  53.0530  88.5810 0001671  53.1774 306.9368 15.06390759118861","RA_OF_ASC_NODE":"88.5810","NORAD_CAT_ID":"44928","DECAY_DATE":null,"EPHEMERIS_TYPE":"0","PERIOD":"95.593","ECCENTRICITY":"0.00016710","MEAN_ANOMALY":"306.9368","OBJECT_ID":"2020-001Q","CENTER_NAME":"EARTH","OBJECT_NAME":"STARLINK-1119","EPOCH":"2022-03-04T12:06:41.468832","LAUNCH_DATE":"2020-01-07","CLASSIFICATION_TYPE":"U","SITE":"AFETR","PERIAPSIS":"546.085"}];
